{
  "type": "FeatureCollection",
  "features": [
    {
      "type": "Feature",
      "properties": {
        "norad_id": 41890,
        "name": "CYGFM07",
        "group": "weather",
        "lat": 29.99803965407479,
        "lon": -11.040083974191758,
        "alt_km": 409.5134345797251,
        "timestamp": "2025-12-26T04:40:05.429816+00:00",
        "meta_object_name": "CYGFM07",
        "meta_object_id": "2016-078G",
        "meta_epoch": "2025-12-25T22:13:35.781312",
        "meta_mean_motion": 15.50564799,
        "meta_eccentricity": 0.00091793,
        "meta_inclination": 34.9475,
        "meta_ra_of_asc_node": 294.9622,
        "meta_arg_of_pericenter": 327.099,
        "meta_mean_anomaly": 32.9161,
        "meta_ephemeris_type": 0,
        "meta_classification_type": "U",
        "meta_norad_cat_id": 41890,
        "meta_element_set_no": 999,
        "meta_rev_at_epoch": 50200,
        "meta_bstar": 0.00037294053,
        "meta_mean_motion_dot": 0.00022047,
        "meta_mean_motion_ddot": 0,
        "tle_line1": "1 41890U 16078G   25359.92610858  .00022047  00000+0  37294-3 0  9999",
        "tle_line2": "2 41890  34.9475 294.9622 0009179 327.0990  32.9161 15.50564799502006"
      },
      "geometry": {
        "type": "Point",
        "coordinates": [
          -11.040083974191758,
          29.99803965407479
        ]
      }
    },
    {
      "type": "Feature",
      "properties": {
        "norad_id": 41891,
        "name": "CYGFM03",
        "group": "weather",
        "lat": -32.636191357186235,
        "lon": -178.3500273382982,
        "alt_km": 414.82826490437037,
        "timestamp": "2025-12-26T04:40:05.429835+00:00",
        "meta_object_name": "CYGFM03",
        "meta_object_id": "2016-078H",
        "meta_epoch": "2025-12-25T21:24:42.405408",
        "meta_mean_motion": 15.50456144,
        "meta_eccentricity": 0.00091017,
        "meta_inclination": 34.9429,
        "meta_ra_of_asc_node": 297.1124,
        "meta_arg_of_pericenter": 313.6651,
        "meta_mean_anomaly": 46.3316,
        "meta_ephemeris_type": 0,
        "meta_classification_type": "U",
        "meta_norad_cat_id": 41891,
        "meta_element_set_no": 999,
        "meta_rev_at_epoch": 50197,
        "meta_bstar": 0.00038165051,
        "meta_mean_motion_dot": 0.00022476,
        "meta_mean_motion_ddot": 0,
        "tle_line1": "1 41891U 16078H   25359.89215747  .00022476  00000+0  38165-3 0  9998",
        "tle_line2": "2 41891  34.9429 297.1124 0009101 313.6651  46.3316 15.50456144501978"
      },
      "geometry": {
        "type": "Point",
        "coordinates": [
          -178.3500273382982,
          -32.636191357186235
        ]
      }
    },
    {
      "type": "Feature",
      "properties": {
        "norad_id": 43010,
        "name": "FENGYUN 3D",
        "group": "weather",
        "lat": -25.049829396184457,
        "lon": -29.049234151599222,
        "alt_km": 833.0647395480964,
        "timestamp": "2025-12-26T04:40:05.429859+00:00",
        "meta_object_name": "FENGYUN 3D",
        "meta_object_id": "2017-072A",
        "meta_epoch": "2025-12-25T22:01:18.016032",
        "meta_mean_motion": 14.19686582,
        "meta_eccentricity": 0.00015821,
        "meta_inclination": 98.9915,
        "meta_ra_of_asc_node": 326.4259,
        "meta_arg_of_pericenter": 146.3576,
        "meta_mean_anomaly": 213.77,
        "meta_ephemeris_type": 0,
        "meta_classification_type": "U",
        "meta_norad_cat_id": 43010,
        "meta_element_set_no": 999,
        "meta_rev_at_epoch": 42040,
        "meta_bstar": -5.8885081e-05,
        "meta_mean_motion_dot": -1.7e-06,
        "meta_mean_motion_ddot": 0,
        "tle_line1": "1 43010U 17072A   25359.91756963 -.00000170  00000+0 -58885-4 0  9992",
        "tle_line2": "2 43010  98.9915 326.4259 0001582 146.3576 213.7700 14.19686582420400"
      },
      "geometry": {
        "type": "Point",
        "coordinates": [
          -29.049234151599222,
          -25.049829396184457
        ]
      }
    },
    {
      "type": "Feature",
      "properties": {
        "norad_id": 43013,
        "name": "NOAA 20 (JPSS-1)",
        "group": "weather",
        "lat": 59.61777841987814,
        "lon": 131.5961539192136,
        "alt_km": 820.2071564284361,
        "timestamp": "2025-12-26T04:40:05.429876+00:00",
        "meta_object_name": "NOAA 20 (JPSS-1)",
        "meta_object_id": "2017-073A",
        "meta_epoch": "2025-12-25T21:20:32.635968",
        "meta_mean_motion": 14.19529186,
        "meta_eccentricity": 0.00020656,
        "meta_inclination": 98.7616,
        "meta_ra_of_asc_node": 296.0432,
        "meta_arg_of_pericenter": 68.4824,
        "meta_mean_anomaly": 291.6572,
        "meta_ephemeris_type": 0,
        "meta_classification_type": "U",
        "meta_norad_cat_id": 43013,
        "meta_element_set_no": 999,
        "meta_rev_at_epoch": 41988,
        "meta_bstar": 6.5237476e-05,
        "meta_mean_motion_dot": 9.3e-07,
        "meta_mean_motion_ddot": 0,
        "tle_line1": "1 43013U 17073A   25359.88926662  .00000093  00000+0  65237-4 0  9998",
        "tle_line2": "2 43013  98.7616 296.0432 0002065  68.4824 291.6572 14.19529186419889"
      },
      "geometry": {
        "type": "Point",
        "coordinates": [
          131.5961539192136,
          59.61777841987814
        ]
      }
    },
    {
      "type": "Feature",
      "properties": {
        "norad_id": 43226,
        "name": "GOES 17",
        "group": "weather",
        "lat": -0.09754248080117364,
        "lon": 75.47640679221254,
        "alt_km": 35798.18969275684,
        "timestamp": "2025-12-26T04:40:05.429896+00:00",
        "meta_object_name": "GOES 17",
        "meta_object_id": "2018-022A",
        "meta_epoch": "2025-12-25T12:38:22.122816",
        "meta_mean_motion": 1.00271863,
        "meta_eccentricity": 0.0003138,
        "meta_inclination": 0.4887,
        "meta_ra_of_asc_node": 89.0412,
        "meta_arg_of_pericenter": 191.0543,
        "meta_mean_anomaly": 274.2832,
        "meta_ephemeris_type": 0,
        "meta_classification_type": "U",
        "meta_norad_cat_id": 43226,
        "meta_element_set_no": 999,
        "meta_rev_at_epoch": 2868,
        "meta_bstar": 0,
        "meta_mean_motion_dot": -1.61e-06,
        "meta_mean_motion_ddot": 0,
        "tle_line1": "1 43226U 18022A   25359.52664494 -.00000161  00000+0  00000+0 0  9991",
        "tle_line2": "2 43226   0.4887  89.0412 0003138 191.0543 274.2832  1.00271863 28688"
      },
      "geometry": {
        "type": "Point",
        "coordinates": [
          75.47640679221254,
          -0.09754248080117364
        ]
      }
    },
    {
      "type": "Feature",
      "properties": {
        "norad_id": 43491,
        "name": "FENGYUN 2H",
        "group": "weather",
        "lat": 0.7365095599045491,
        "lon": -115.69265519403467,
        "alt_km": 35776.1384720064,
        "timestamp": "2025-12-26T04:40:05.429916+00:00",
        "meta_object_name": "FENGYUN 2H",
        "meta_object_id": "2018-050A",
        "meta_epoch": "2025-12-25T23:59:15.679392",
        "meta_mean_motion": 1.00270295,
        "meta_eccentricity": 0.00024376,
        "meta_inclination": 2.5829,
        "meta_ra_of_asc_node": 81.1887,
        "meta_arg_of_pericenter": 166.8627,
        "meta_mean_anomaly": 285.8473,
        "meta_ephemeris_type": 0,
        "meta_classification_type": "U",
        "meta_norad_cat_id": 43491,
        "meta_element_set_no": 999,
        "meta_rev_at_epoch": 2770,
        "meta_bstar": 0,
        "meta_mean_motion_dot": -1.08e-06,
        "meta_mean_motion_ddot": 0,
        "tle_line1": "1 43491U 18050A   25359.99948703 -.00000108  00000+0  00000+0 0  9996",
        "tle_line2": "2 43491   2.5829  81.1887 0002437 166.8627 285.8473  1.00270295 27703"
      },
      "geometry": {
        "type": "Point",
        "coordinates": [
          -115.69265519403467,
          0.7365095599045491
        ]
      }
    },
    {
      "type": "Feature",
      "properties": {
        "norad_id": 43689,
        "name": "METOP-C",
        "group": "weather",
        "lat": -5.207151369273228,
        "lon": 58.555345887162346,
        "alt_km": 823.4870939654138,
        "timestamp": "2025-12-26T04:40:05.429933+00:00",
        "meta_object_name": "METOP-C",
        "meta_object_id": "2018-087A",
        "meta_epoch": "2025-12-25T21:56:08.140704",
        "meta_mean_motion": 14.21489276,
        "meta_eccentricity": 5.929e-05,
        "meta_inclination": 98.6911,
        "meta_ra_of_asc_node": 57.4805,
        "meta_arg_of_pericenter": 14.2051,
        "meta_mean_anomaly": 345.9143,
        "meta_ephemeris_type": 0,
        "meta_classification_type": "U",
        "meta_norad_cat_id": 43689,
        "meta_element_set_no": 999,
        "meta_rev_at_epoch": 37021,
        "meta_bstar": 7.9146155e-05,
        "meta_mean_motion_dot": 1.29e-06,
        "meta_mean_motion_ddot": 0,
        "tle_line1": "1 43689U 18087A   25359.91398311  .00000129  00000+0  79146-4 0  9995",
        "tle_line2": "2 43689  98.6911  57.4805 0000592  14.2051 345.9143 14.21489276370210"
      },
      "geometry": {
        "type": "Point",
        "coordinates": [
          58.555345887162346,
          -5.207151369273228
        ]
      }
    }
  ]
}